{"type": "FeatureCollection", "features": [ {"type": "Feature", "properties": {"norad_id": 28649, "name": "IRS-P5 (CARTOSAT-1)", "group": "resource", "lat": -16.80522262542525, "lon": 28.862870697457065, "alt_km": 601.4692683144467, "timestamp": "2025-12-26T18:39:31.928779+00:00", "meta": {"OBJECT_NAME": "IRS-P5 (CARTOSAT-1)", "OBJECT_ID": "2005-017A", "EPOCH": "2025-12-26T12:17:23.159904", "MEAN_MOTION": 14.90450181, "ECCENTRICITY": 4.684e-05, "INCLINATION": 97.5483, "RA_OF_ASC_NODE": 26.3141, "ARG_OF_PERICENTER": 73.2252, "MEAN_ANOMALY": 286.9018, "EPHEMERIS_TYPE": 0, "CLASSIFICATION_TYPE": "U", "NORAD_CAT_ID": 28649, "ELEMENT_SET_NO": 999, "REV_AT_EPOCH": 11809, "BSTAR": 0.00017905905, "MEAN_MOTION_DOT": 1.694e-05, "MEAN_MOTION_DDOT": 0}, "tle": {"line1": "1 28649U 05017A   25360.51207361  .00001694  00000+0  17906-3 0  9998", "line2": "2 28649  97.5483  26.3141 0000468  73.2252 286.9018 14.90450181118099"}}, "geometry": {"type": "Point", "coordinates": [28.862870697457065, -16.80522262542525]}}, {"type": "Feature", "properties": {"norad_id": 28893, "name": "SINAH 1", "group": "resource", "lat": 78.61598997693326, "lon": 83.18826706839612, "alt_km": 662.2380835562199, "timestamp": "2025-12-26T18:39:31.928790+00:00", "meta": {"OBJECT_NAME": "SINAH 1", "OBJECT_ID": "2005-043D", "EPOCH": "2025-12-26T15:00:17.932320", "MEAN_MOTION": 14.63976969, "ECCENTRICITY": 0.00157352, "INCLINATION": 98.261, "RA_OF_ASC_NODE": 129.2203, "ARG_OF_PERICENTER": 96.5513, "MEAN_ANOMALY": 263.7481, "EPHEMERIS_TYPE": 0, "CLASSIFICATION_TYPE": "U", "NORAD_CAT_ID": 28893, "ELEMENT_SET_NO": 999, "REV_AT_EPOCH": 7527, "BSTAR": 0.00010603641, "MEAN_MOTION_DOT": 5.07e-06, "MEAN_MOTION_DDOT": 0}, "tle": {"line1": "1 28893U 05043D   25360.62520755  .00000507  00000+0  10604-3 0  9995", "line2": "2 28893  98.2610 129.2203 0015735  96.5513 263.7481 14.63976969 75279"}}, "geometry": {"type": "Point", "coordinates": [83.18826706839612, 78.61598997693326]}}, {"type": "Feature", "properties": {"norad_id": 29079, "name": "EROS B", "group": "resource", "lat": 65.63629030645563, "lon": 101.5161140796173, "alt_km": 345.31038085457385, "timestamp": "2025-12-26T18:39:31.928801+00:00", "meta": {"OBJECT_NAME": "EROS B", "OBJECT_ID": "2006-014A", "EPOCH": "2025-12-26T13:47:45.503808", "MEAN_MOTION": 15.72938386, "ECCENTRICITY": 0.00047834, "INCLINATION": 97.3449, "RA_OF_ASC_NODE": 117.852, "ARG_OF_PERICENTER": 312.1845, "MEAN_ANOMALY": 47.9013, "EPHEMERIS_TYPE": 0, "CLASSIFICATION_TYPE": "U", "NORAD_CAT_ID": 29079, "ELEMENT_SET_NO": 999, "REV_AT_EPOCH": 9297, "BSTAR": 0.0014674105, "MEAN_MOTION_DOT": 0.0020356, "MEAN_MOTION_DDOT": 0}, "tle": {"line1": "1 29079U 06014A   25360.57483222  .00203560  00000+0  14674-2 0  9996", "line2": "2 29079  97.3449 117.8520 0004783 312.1845  47.9013 15.72938386 92978"}}, "geometry": {"type": "Point", "coordinates": [101.5161140796173, 65.63629030645563]}}, {"type": "Feature", "properties": {"norad_id": 29228, "name": "RESURS-DK 1", "group": "resource", "lat": -50.22181893590104, "lon": 39.513598035884854, "alt_km": 533.1841383420779, "timestamp": "2025-12-26T18:39:31.928811+00:00", "meta": {"OBJECT_NAME": "RESURS-DK 1", "OBJECT_ID": "2006-021A", "EPOCH": "2025-12-26T14:08:19.212864", "MEAN_MOTION": 15.12237827, "ECCENTRICITY": 0.0006959, "INCLINATION": 69.9336, "RA_OF_ASC_NODE": 66.0447, "ARG_OF_PERICENTER": 246.6774, "MEAN_ANOMALY": 113.3659, "EPHEMERIS_TYPE": 0, "CLASSIFICATION_TYPE": "U", "NORAD_CAT_ID": 29228, "ELEMENT_SET_NO": 999, "REV_AT_EPOCH": 7647, "BSTAR": 0.00017973319, "MEAN_MOTION_DOT": 3.008e-05, "MEAN_MOTION_DDOT": 0}, "tle": {"line1": "1 29228U 06021A   25360.58911126  .00003008  00000+0  17973-3 0  9991", "line2": "2 29228  69.9336  66.0447 0006959 246.6774 113.3659 15.12237827 76473"}}, "geometry": {"type": "Point", "coordinates": [39.513598035884854, -50.22181893590104]}}, {"type": "Feature", "properties": {"norad_id": 29268, "name": "ARIRANG-2 (KOMPSAT-2)", "group": "resource", "lat": 13.802641461765546, "lon": -173.37015850941185, "alt_km": 683.3527915085706, "timestamp": "2025-12-26T18:39:31.928822+00:00", "meta": {"OBJECT_NAME": "ARIRANG-2 (KOMPSAT-2)", "OBJECT_ID": "2006-031A", "EPOCH": "2025-12-26T15:39:21.184128", "MEAN_MOTION": 14.64506305, "ECCENTRICITY": 0.00131186, "INCLINATION": 97.826, "RA_OF_ASC_NODE": 188.4472, "ARG_OF_PERICENTER": 261.1459, "MEAN_ANOMALY": 173.4784, "EPHEMERIS_TYPE": 0, "CLASSIFICATION_TYPE": "U", "NORAD_CAT_ID": 29268, "ELEMENT_SET_NO": 999, "REV_AT_EPOCH": 3622, "BSTAR": 0.00010931466, "MEAN_MOTION_DOT": 5.35e-06, "MEAN_MOTION_DDOT": 0}, "tle": {"line1": "1 29268U 06031A   25360.65232852  .00000535  00000+0  10931-3 0  9995", "line2": "2 29268  97.8260 188.4472 0013118 261.1459 173.4784 14.64506305 36228"}}, "geometry": {"type": "Point", "coordinates": [-173.37015850941185, 13.802641461765546]}}, {"type": "Feature", "properties": {"norad_id": 29709, "name": "LAPAN-TUBSAT", "group": "resource", "lat": -61.38503721591813, "lon": 6.407141115948659, "alt_km": 619.3096126267646, "timestamp": "2025-12-26T18:39:31.928847+00:00", "meta": {"OBJECT_NAME": "LAPAN-TUBSAT", "OBJECT_ID": "2007-001A", "EPOCH": "2025-12-26T14:05:24.504288", "MEAN_MOTION": 14.85689698, "ECCENTRICITY": 0.00130824, "INCLINATION": 98.1267, "RA_OF_ASC_NODE": 351.0287, "ARG_OF_PERICENTER": 32.798, "MEAN_ANOMALY": 327.4044, "EPHEMERIS_TYPE": 0, "CLASSIFICATION_TYPE": "U", "NORAD_CAT_ID": 29709, "ELEMENT_SET_NO": 999, "REV_AT_EPOCH": 2552, "BSTAR": 7.3068751e-05, "MEAN_MOTION_DOT": 5.77e-06, "MEAN_MOTION_DDOT": 0}, "tle": {"line1": "1 29709U 07001A   25360.58708917  .00000577  00000+0  73069-4 0  9993", "line2": "2 29709  98.1267 351.0287 0013082  32.7980 327.4044 14.85689698 25523"}}, "geometry": {"type": "Point", "coordinates": [6.407141115948659, -61.38503721591813]}}, {"type": "Feature", "properties": {"norad_id": 31113, "name": "HAIYANG-1B", "group": "resource", "lat": -57.21179998280495, "lon": -2.371582978877869, "alt_km": 790.0906181686487, "timestamp": "2025-12-26T18:39:31.928866+00:00", "meta": {"OBJECT_NAME": "HAIYANG-1B", "OBJECT_ID": "2007-010A", "EPOCH": "2025-12-26T12:13:01.450848", "MEAN_MOTION": 14.3096953, "ECCENTRICITY": 0.00135155, "INCLINATION": 98.3331, "RA_OF_ASC_NODE": 344.2192, "ARG_OF_PERICENTER": 358.4031, "MEAN_ANOMALY": 1.7108, "EPHEMERIS_TYPE": 0, "CLASSIFICATION_TYPE": "U", "NORAD_CAT_ID": 31113, "ELEMENT_SET_NO": 999, "REV_AT_EPOCH": 97593, "BSTAR": 6.670665e-05, "MEAN_MOTION_DOT": 1.34e-06, "MEAN_MOTION_DDOT": 0}, "tle": {"line1": "1 31113U 07010A   25360.50904457  .00000134  00000+0  66707-4 0  9994", "line2": "2 31113  98.3331 344.2192 0013515 358.4031   1.7108 14.30969530975932"}}, "geometry": {"type": "Point", "coordinates": [-2.371582978877869, -57.21179998280495]}}, {"type": "Feature", "properties": {"norad_id": 31598, "name": "COSMO-SKYMED 1", "group": "resource", "lat": 44.415636426963474, "lon": 178.4662925041519, "alt_km": 575.273127114744, "timestamp": "2025-12-26T18:39:31.928878+00:00", "meta": {"OBJECT_NAME": "COSMO-SKYMED 1", "OBJECT_ID": "2007-023A", "EPOCH": "2025-12-26T15:14:52.022112", "MEAN_MOTION": 14.95866804, "ECCENTRICITY": 0.00011328, "INCLINATION": 97.8838, "RA_OF_ASC_NODE": 186.1264, "ARG_OF_PERICENTER": 77.5679, "MEAN_ANOMALY": 282.5668, "EPHEMERIS_TYPE": 0, "CLASSIFICATION_TYPE": "U", "NORAD_CAT_ID": 31598, "ELEMENT_SET_NO": 999, "REV_AT_EPOCH": 398, "BSTAR": 0.00030501383, "MEAN_MOTION_DOT": 3.35e-05, "MEAN_MOTION_DDOT": 0}, "tle": {"line1": "1 31598U 07023A   25360.63532433  .00003350  00000+0  30501-3 0  9995", "line2": "2 31598  97.8838 186.1264 0001132  77.5679 282.5668 14.95866804  3985"}}, "geometry": {"type": "Point", "coordinates": [178.4662925041519, 44.415636426963474]}}, {"type": "Feature", "properties": {"norad_id": 31698, "name": "TERRASAR-X", "group": "resource", "lat": 21.78388249131531, "lon": -171.0515982359645, "alt_km": 507.9883662003331, "timestamp": "2025-12-26T18:39:31.928888+00:00", "meta": {"OBJECT_NAME": "TERRASAR-X", "OBJECT_ID": "2007-026A", "EPOCH": "2025-12-26T13:13:25.268160", "MEAN_MOTION": 15.19159007, "ECCENTRICITY": 0.0001831, "INCLINATION": 97.4449, "RA_OF_ASC_NODE": 5.7296, "ARG_OF_PERICENTER": 80.7089, "MEAN_ANOMALY": 279.4352, "EPHEMERIS_TYPE": 0, "CLASSIFICATION_TYPE": "U", "NORAD_CAT_ID": 31698, "ELEMENT_SET_NO": 999, "REV_AT_EPOCH": 2701, "BSTAR": 7.451225e-05, "MEAN_MOTION_DOT": 1.498e-05, "MEAN_MOTION_DDOT": 0}, "tle": {"line1": "1 31698U 07026A   25360.55098690  .00001498  00000+0  74512-4 0  9994", "line2": "2 31698  97.4449   5.7296 0001831  80.7089 279.4352 15.19159007 27010"}}, "geometry": {"type": "Point", "coordinates": [-171.0515982359645, 21.78388249131531]}}, {"type": "Feature", "properties": {"norad_id": 32060, "name": "WORLDVIEW-1 (WV-1)", "group": "resource", "lat": 59.81857058924626, "lon": 105.17086580641163, "alt_km": 487.4277894149218, "timestamp": "2025-12-26T18:39:31.928899+00:00", "meta": {"OBJECT_NAME": "WORLDVIEW-1 (WV-1)", "OBJECT_ID": "2007-041A", "EPOCH": "2025-12-26T13:39:58.675104", "MEAN_MOTION": 15.23982891, "ECCENTRICITY": 0.00030548, "INCLINATION": 97.3818, "RA_OF_ASC_NODE": 117.8466, "ARG_OF_PERICENTER": 349.223, "MEAN_ANOMALY": 10.8942, "EPHEMERIS_TYPE": 0, "CLASSIFICATION_TYPE": "U", "NORAD_CAT_ID": 32060, "ELEMENT_SET_NO": 999, "REV_AT_EPOCH": 1658, "BSTAR": 0.00036111193, "MEAN_MOTION_DOT": 8.675e-05, "MEAN_MOTION_DDOT": 0}, "tle": {"line1": "1 32060U 07041A   25360.56942911  .00008675  00000+0  36111-3 0  9996", "line2": "2 32060  97.3818 117.8466 0003054 349.2230  10.8942 15.23982891 16589"}}, "geometry": {"type": "Point", "coordinates": [105.17086580641163, 59.81857058924626]}}]}